{"type": "FeatureCollection", "features": [ {"type": "Feature", "properties": {"norad_id": 35705, "name": "COSMOS 2251 DEB", "group": "cosmos-2251-debris", "lat": -11.78461443896593, "lon": 121.24885298792924, "alt_km": 654.5582835396253, "timestamp": "2025-12-18T13:51:50.082549+00:00", "meta": {"OBJECT_NAME": "COSMOS 2251 DEB", "OBJECT_ID": "1993-036AQA", "EPOCH": "2025-12-18T02:30:16.850016", "MEAN_MOTION": 14.7240967, "ECCENTRICITY": 0.0033127, "INCLINATION": 74.2733, "RA_OF_ASC_NODE": 125.5265, "ARG_OF_PERICENTER": 72.0768, "MEAN_ANOMALY": 288.4013, "EPHEMERIS_TYPE": 0, "CLASSIFICATION_TYPE": "U", "NORAD_CAT_ID": 35705, "ELEMENT_SET_NO": 999, "REV_AT_EPOCH": 86005, "BSTAR": 0.0020233771, "MEAN_MOTION_DOT": 0.00012927, "MEAN_MOTION_DDOT": 0}, "tle": {"line1": "1 35705U 93036AQA 25352.10436169  .00012927  00000+0  20234-2 0  9991", "line2": "2 35705  74.2733 125.5265 0033127  72.0768 288.4013 14.72409670860055"}}, "geometry": {"type": "Point", "coordinates": [121.24885298792924, -11.78461443896593]}}, {"type": "Feature", "properties": {"norad_id": 35706, "name": "COSMOS 2251 DEB", "group": "cosmos-2251-debris", "lat": 2.19946560483324, "lon": -127.47144338063858, "alt_km": 946.4533304613142, "timestamp": "2025-12-18T13:51:50.082559+00:00", "meta": {"OBJECT_NAME": "COSMOS 2251 DEB", "OBJECT_ID": "1993-036AQB", "EPOCH": "2025-12-17T12:25:35.555232", "MEAN_MOTION": 13.65933919, "ECCENTRICITY": 0.03402038, "INCLINATION": 73.8894, "RA_OF_ASC_NODE": 54.9149, "ARG_OF_PERICENTER": 103.8127, "MEAN_ANOMALY": 260.1085, "EPHEMERIS_TYPE": 0, "CLASSIFICATION_TYPE": "U", "NORAD_CAT_ID": 35706, "ELEMENT_SET_NO": 999, "REV_AT_EPOCH": 62127, "BSTAR": 0.00060966611, "MEAN_MOTION_DOT": 7.25e-06, "MEAN_MOTION_DDOT": 0}, "tle": {"line1": "1 35706U 93036AQB 25351.51777263  .00000725  00000+0  60967-3 0  9990", "line2": "2 35706  73.8894  54.9149 0340203 103.8127 260.1085 13.65933919621277"}}, "geometry": {"type": "Point", "coordinates": [-127.47144338063858, 2.19946560483324]}}, {"type": "Feature", "properties": {"norad_id": 35711, "name": "COSMOS 2251 DEB", "group": "cosmos-2251-debris", "lat": 35.73394518313253, "lon": 17.380537711923004, "alt_km": 736.725713178821, "timestamp": "2025-12-18T13:51:50.082569+00:00", "meta": {"OBJECT_NAME": "COSMOS 2251 DEB", "OBJECT_ID": "1993-036AQG", "EPOCH": "2025-12-16T08:43:24.573504", "MEAN_MOTION": 14.63811457, "ECCENTRICITY": 0.00855113, "INCLINATION": 74.0451, "RA_OF_ASC_NODE": 213.5058, "ARG_OF_PERICENTER": 313.6514, "MEAN_ANOMALY": 45.7584, "EPHEMERIS_TYPE": 0, "CLASSIFICATION_TYPE": "U", "NORAD_CAT_ID": 35711, "ELEMENT_SET_NO": 999, "REV_AT_EPOCH": 87824, "BSTAR": 0.00016330045, "MEAN_MOTION_DOT": 8.64e-06, "MEAN_MOTION_DDOT": 0}, "tle": {"line1": "1 35711U 93036AQG 25350.36347886  .00000864  00000+0  16330-3 0  9991", "line2": "2 35711  74.0451 213.5058 0085511 313.6514  45.7584 14.63811457878249"}}, "geometry": {"type": "Point", "coordinates": [17.380537711923004, 35.73394518313253]}}, {"type": "Feature", "properties": {"norad_id": 35716, "name": "COSMOS 2251 DEB", "group": "cosmos-2251-debris", "lat": 33.28551648412593, "lon": -7.831235267422978, "alt_km": 723.948189222363, "timestamp": "2025-12-18T13:51:50.082580+00:00", "meta": {"OBJECT_NAME": "COSMOS 2251 DEB", "OBJECT_ID": "1993-036AQM", "EPOCH": "2025-12-17T19:10:59.620224", "MEAN_MOTION": 14.60091999, "ECCENTRICITY": 0.00889426, "INCLINATION": 73.992, "RA_OF_ASC_NODE": 184.5217, "ARG_OF_PERICENTER": 24.1822, "MEAN_ANOMALY": 350.396, "EPHEMERIS_TYPE": 0, "CLASSIFICATION_TYPE": "U", "NORAD_CAT_ID": 35716, "ELEMENT_SET_NO": 999, "REV_AT_EPOCH": 87701, "BSTAR": 7.2268042e-05, "MEAN_MOTION_DOT": 3.34e-06, "MEAN_MOTION_DDOT": 0}, "tle": {"line1": "1 35716U 93036AQM 25351.79930116  .00000334  00000+0  72268-4 0  9993", "line2": "2 35716  73.9920 184.5217 0088942  24.1822 350.3960 14.60091999877019"}}, "geometry": {"type": "Point", "coordinates": [-7.831235267422978, 33.28551648412593]}}, {"type": "Feature", "properties": {"norad_id": 35717, "name": "COSMOS 2251 DEB", "group": "cosmos-2251-debris", "lat": -1.0519738631267532, "lon": 27.11552759057986, "alt_km": 790.2532329298183, "timestamp": "2025-12-18T13:51:50.082590+00:00", "meta": {"OBJECT_NAME": "COSMOS 2251 DEB", "OBJECT_ID": "1993-036AQN", "EPOCH": "2025-12-15T21:36:31.335552", "MEAN_MOTION": 14.38515087, "ECCENTRICITY": 0.00772191, "INCLINATION": 74.1598, "RA_OF_ASC_NODE": 211.7132, "ARG_OF_PERICENTER": 70.2705, "MEAN_ANOMALY": 290.6758, "EPHEMERIS_TYPE": 0, "CLASSIFICATION_TYPE": "U", "NORAD_CAT_ID": 35717, "ELEMENT_SET_NO": 999, "REV_AT_EPOCH": 74145, "BSTAR": 0.0007891897, "MEAN_MOTION_DOT": 2.473e-05, "MEAN_MOTION_DDOT": 0}, "tle": {"line1": "1 35717U 93036AQN 25349.90036268  .00002473  00000+0  78919-3 0  9993", "line2": "2 35717  74.1598 211.7132 0077219  70.2705 290.6758 14.38515087741453"}}, "geometry": {"type": "Point", "coordinates": [27.11552759057986, -1.0519738631267532]}}, {"type": "Feature", "properties": {"norad_id": 35718, "name": "COSMOS 2251 DEB", "group": "cosmos-2251-debris", "lat": -17.28503640619568, "lon": -56.21475475827746, "alt_km": 663.3230074834646, "timestamp": "2025-12-18T13:51:50.082601+00:00", "meta": {"OBJECT_NAME": "COSMOS 2251 DEB", "OBJECT_ID": "1993-036AQP", "EPOCH": "2025-12-17T02:38:13.400448", "MEAN_MOTION": 14.68736376, "ECCENTRICITY": 0.00104417, "INCLINATION": 74.0312, "RA_OF_ASC_NODE": 121.5128, "ARG_OF_PERICENTER": 170.1123, "MEAN_ANOMALY": 190.0255, "EPHEMERIS_TYPE": 0, "CLASSIFICATION_TYPE": "U", "NORAD_CAT_ID": 35718, "ELEMENT_SET_NO": 999, "REV_AT_EPOCH": 65904, "BSTAR": 0.0013106326, "MEAN_MOTION_DOT": 7.622e-05, "MEAN_MOTION_DDOT": 0}, "tle": {"line1": "1 35718U 93036AQP 25351.10987732  .00007622  00000+0  13106-2 0  9997", "line2": "2 35718  74.0312 121.5128 0010441 170.1123 190.0255 14.68736376659045"}}, "geometry": {"type": "Point", "coordinates": [-56.21475475827746, -17.28503640619568]}}, {"type": "Feature", "properties": {"norad_id": 35721, "name": "COSMOS 2251 DEB", "group": "cosmos-2251-debris", "lat": -35.03627561619392, "lon": -1.3602551842455646, "alt_km": 791.4526426020311, "timestamp": "2025-12-18T13:51:50.082621+00:00", "meta": {"OBJECT_NAME": "COSMOS 2251 DEB", "OBJECT_ID": "1993-036AQS", "EPOCH": "2025-12-09T19:36:39.465216", "MEAN_MOTION": 14.34317214, "ECCENTRICITY": 0.01465875, "INCLINATION": 73.9489, "RA_OF_ASC_NODE": 183.1196, "ARG_OF_PERICENTER": 330.1589, "MEAN_ANOMALY": 29.126, "EPHEMERIS_TYPE": 0, "CLASSIFICATION_TYPE": "U", "NORAD_CAT_ID": 35721, "ELEMENT_SET_NO": 999, "REV_AT_EPOCH": 57747, "BSTAR": 0.0018396061, "MEAN_MOTION_DOT": 5.808e-05, "MEAN_MOTION_DDOT": 0}, "tle": {"line1": "1 35721U 93036AQS 25343.81712344  .00005808  00000+0  18396-2 0  9995", "line2": "2 35721  73.9489 183.1196 0146587 330.1589  29.1260 14.34317214577479"}}, "geometry": {"type": "Point", "coordinates": [-1.3602551842455646, -35.03627561619392]}}, {"type": "Feature", "properties": {"norad_id": 35724, "name": "COSMOS 2251 DEB", "group": "cosmos-2251-debris", "lat": -56.438681717412706, "lon": -93.99815792738885, "alt_km": 739.1650695453973, "timestamp": "2025-12-18T13:51:50.082634+00:00", "meta": {"OBJECT_NAME": "COSMOS 2251 DEB", "OBJECT_ID": "1993-036AQV", "EPOCH": "2025-12-18T02:36:52.242336", "MEAN_MOTION": 14.58211099, "ECCENTRICITY": 0.00589944, "INCLINATION": 74.0328, "RA_OF_ASC_NODE": 292.4608, "ARG_OF_PERICENTER": 84.5216, "MEAN_ANOMALY": 276.2674, "EPHEMERIS_TYPE": 0, "CLASSIFICATION_TYPE": "U", "NORAD_CAT_ID": 35724, "ELEMENT_SET_NO": 999, "REV_AT_EPOCH": 87607, "BSTAR": 0.00021824888, "MEAN_MOTION_DOT": 1.001e-05, "MEAN_MOTION_DDOT": 0}, "tle": {"line1": "1 35724U 93036AQV 25352.10893799  .00001001  00000+0  21825-3 0  9997", "line2": "2 35724  74.0328 292.4608 0058994  84.5216 276.2674 14.58211099876071"}}, "geometry": {"type": "Point", "coordinates": [-93.99815792738885, -56.438681717412706]}}, {"type": "Feature", "properties": {"norad_id": 35759, "name": "COSMOS 2251 DEB", "group": "cosmos-2251-debris", "lat": -58.024940850435584, "lon": 177.52846481501712, "alt_km": 634.0947636309611, "timestamp": "2025-12-18T13:51:50.082644+00:00", "meta": {"OBJECT_NAME": "COSMOS 2251 DEB", "OBJECT_ID": "1993-036ARD", "EPOCH": "2025-12-17T08:38:24.236736", "MEAN_MOTION": 14.6490617, "ECCENTRICITY": 0.00772003, "INCLINATION": 74.0368, "RA_OF_ASC_NODE": 207.1613, "ARG_OF_PERICENTER": 324.2826, "MEAN_ANOMALY": 35.319, "EPHEMERIS_TYPE": 0, "CLASSIFICATION_TYPE": "U", "NORAD_CAT_ID": 35759, "ELEMENT_SET_NO": 999, "REV_AT_EPOCH": 66203, "BSTAR": 0.00021011522, "MEAN_MOTION_DOT": 1.14e-05, "MEAN_MOTION_DDOT": 0}, "tle": {"line1": "1 35759U 93036ARD 25351.36000274  .00001140  00000+0  21012-3 0  9992", "line2": "2 35759  74.0368 207.1613 0077200 324.2826  35.3190 14.64906170662038"}}, "geometry": {"type": "Point", "coordinates": [177.52846481501712, -58.024940850435584]}}, {"type": "Feature", "properties": {"norad_id": 35771, "name": "COSMOS 2251 DEB", "group": "cosmos-2251-debris", "lat": -46.90261010644411, "lon": -77.60459321762967, "alt_km": 804.2532338909059, "timestamp": "2025-12-18T13:51:50.082655+00:00", "meta": {"OBJECT_NAME": "COSMOS 2251 DEB", "OBJECT_ID": "1993-036ARR", "EPOCH": "2025-12-15T14:45:16.238592", "MEAN_MOTION": 14.13430046, "ECCENTRICITY": 0.02280549, "INCLINATION": 74.1561, "RA_OF_ASC_NODE": 305.27, "ARG_OF_PERICENTER": 242.9998, "MEAN_ANOMALY": 114.7698, "EPHEMERIS_TYPE": 0, "CLASSIFICATION_TYPE": "U", "NORAD_CAT_ID": 35771, "ELEMENT_SET_NO": 999, "REV_AT_EPOCH": 82901, "BSTAR": 0.0026764238, "MEAN_MOTION_DOT": 6.427e-05, "MEAN_MOTION_DDOT": 0}, "tle": {"line1": "1 35771U 93036ARR 25349.61477128  .00006427  00000+0  26764-2 0  9998", "line2": "2 35771  74.1561 305.2700 0228054 242.9998 114.7698 14.13430046829012"}}, "geometry": {"type": "Point", "coordinates": [-77.60459321762967, -46.90261010644411]}}]}